{
    "links": {
        "self": "http://www.neowsapp.com/rest/v1/neo/3827303?api_key=iIulBulltgU6a56xZRHN4H3l9WmuAYTsLGpBGhQ2"
    },
    "id": "3827303",
    "neo_reference_id": "3827303",
    "name": "(2018 RN1)",
    "designation": "2018 RN1",
    "nasa_jpl_url": "http://ssd.jpl.nasa.gov/sbdb.cgi?sstr=3827303",
    "absolute_magnitude_h": 25.4,
    "estimated_diameter": {
        "kilometers": {
            "estimated_diameter_min": 0.022108281,
            "estimated_diameter_max": 0.0494356193
        },
        "meters": {
            "estimated_diameter_min": 22.1082810359,
            "estimated_diameter_max": 49.435619262
        },
        "miles": {
            "estimated_diameter_min": 0.0137374447,
            "estimated_diameter_max": 0.0307178602
        },
        "feet": {
            "estimated_diameter_min": 72.5337327539,
            "estimated_diameter_max": 162.1903570994
        }
    },
    "is_potentially_hazardous_asteroid": false,
    "close_approach_data": [
        {
            "close_approach_date": "2018-08-30",
            "close_approach_date_full": "2018-Aug-30 19:33",
            "epoch_date_close_approach": 1535657580000,
            "relative_velocity": {
                "kilometers_per_second": "12.8294888226",
                "kilometers_per_hour": "46186.1597613092",
                "miles_per_hour": "28698.2835472424"
            },
            "miss_distance": {
                "astronomical": "0.0230793043",
                "lunar": "8.9778493727",
                "kilometers": "3452614.764361841",
                "miles": "2145355.3331257658"
            },
            "orbiting_body": "Earth"
        }
    ],
    "orbital_data": {
        "orbit_id": "4",
        "orbit_determination_date": "2018-09-29 07:54:52",
        "first_observation_date": "2018-09-06",
        "last_observation_date": "2018-09-16",
        "data_arc_in_days": 10,
        "observations_used": 38,
        "orbit_uncertainty": "8",
        "minimum_orbit_intersection": ".0084609",
        "jupiter_tisserand_invariant": "3.855",
        "epoch_osculation": "2458369.5",
        "eccentricity": ".5021091863170223",
        "semi_major_axis": "1.827245571333866",
        "inclination": "10.62179959892897",
        "ascending_node_longitude": "337.1052108406033",
        "orbital_period": "902.1812643082372",
        "perihelion_distance": ".9097687843100362",
        "perihelion_argument": "311.5009577899924",
        "aphelion_distance": "2.744722358357696",
        "perihelion_time": "2458324.533034006315",
        "mean_anomaly": "17.94329853451247",
        "mean_motion": ".399032893102736",
        "equinox": "J2000",
        "orbit_class": {
            "orbit_class_type": "APO",
            "orbit_class_description": "Near-Earth asteroid orbits which cross the Earth’s orbit similar to that of 1862 Apollo",
            "orbit_class_range": "a (semi-major axis) > 1.0 AU; q (perihelion) < 1.017 AU"
        }
    },
    "is_sentry_object": false
}